NOAA 19                 
1 33591U 09005A   21345.14450857  .00000062  00000-0  58583-4 0  9995
2 33591  99.1702  10.1196 0013880   0.7558 359.3632 14.12513872661866
